SL-16 R/B               
1 28353U 04021B   25212.75982169 -.00000162  00000+0 -59667-4 0  9994
2 28353  71.0022 336.1171 0004991 349.0187  11.0826 14.14550946 91593
CZ-4B R/B               
1 28415U 04035C   25213.11423543  .00008260  00000+0  33022-3 0  9996
2 28415  97.3777 245.3520 0036016  31.5638 328.7749 15.24755982146251
CZ-2C R/B               
1 28480U 04046B   25212.81442969  .00000163  00000+0  75225-4 0  9995
2 28480  98.1917 136.5942 0140934  88.0410 273.6905 14.26849394 77007
ARIANE 5 R/B            
1 28499U 04049H   25212.94995575  .00000685  00000+0  83316-4 0  9997
2 28499  98.2396   8.5851 0084896 347.2047  12.7011 14.84591798113036
CZ-2D R/B               
1 28738U 05024B   25213.50420936  .00020386  00000+0  42908-3 0  9995
2 28738  97.3689 218.2318 0008400 110.5090 249.7062 15.45282328105641
ALOS (DAICHI)           
1 28931U 06002A   25213.40912041  .00001612  00000+0  28419-3 0  9991
2 28931  98.0864 166.0803 0000692  80.4341 279.6943 14.68851480 41517
H-2A R/B                
1 28932U 06002B   25213.31401395  .00006425  00000+0  36982-3 0  9998
2 28932  98.2163 337.6761 0056867 268.8488  90.6224 15.11463216 61194
RESURS-DK 1             
1 29228U 06021A   25213.16083932  .00002348  00000+0  14591-3 0  9996
2 29228  69.9334  86.7611 0001791 109.1899 250.9460 15.11166323 54210
CZ-4B R/B               
1 29507U 06046C   25212.75037934  .00004171  00000+0  22931-3 0  9991
2 29507  97.5925 253.2499 0033994 313.2198  46.6195 15.14155898 26580
CZ-2C R/B               
1 31114U 07010B   25213.34913505  .00000117  00000+0  72859-4 0  9994
2 31114  98.3841 332.8242 0058468 213.9714 145.7714 14.20141351948458
COSMO-SKYMED 1          
1 31598U 07023A   25213.53805455  .00002030  00000+0  19288-3 0  9991
2 31598  97.8889  38.1630 0001475  87.8144 272.3245 14.94621144982063
GENESIS 2               
1 31789U 07028A   25213.22790941  .00227630  26428-4  66017-3 0  9991
2 31789  64.4673 227.0177 0025020 302.6467  57.2277 15.92182257  1310
COSMOS 2428             
1 31792U 07029A   25212.71867699  .00000239  00000+0  15434-3 0  9998
2 31792  70.9444 307.1986 0005267 234.9714 125.0913 14.12895729932885
SL-16 R/B               
1 31793U 07029B   25212.62956035 -.00000287  00000+0 -12406-3 0  9993
2 31793  70.9753 277.0532 0002753 279.0139 189.0120 14.14791015934190
KORONAS-FOTON           
1 33504U 09003A   25212.88629258  .00011553  00000+0  31309-3 0  9990
2 33504  82.4337 144.3297 0010343 220.9217 139.1252 15.37454906911758
CZ-2C R/B               
1 37731U 11030B   25212.91631008  .00001552  00000+0  20574-3 0  9999
2 37731  97.8176 170.2359 0053204 350.4462  75.6071 14.80323284757422
H-2A R/B                
1 38341U 12025E   25212.87007978  .00003605  00000+0  34432-3 0  9999
2 38341  98.4381 158.1085 0045077 315.8670  43.8953 14.93255713715246
SHIJIAN-16 (SJ-16)      
1 39358U 13057A   25213.53769759  .00000823  00000+0  85008-4 0  9995
2 39358  74.9698 241.5589 0018317 286.9192  72.9988 14.91473201638747
SL-4 R/B                
1 39679U 14021B   25212.62836782  .00008266  00000+0  22544-3 0  9997
2 39679  51.6100 329.9465 0111511  21.2217 339.3337 15.32333782622628
ALOS-2                  
1 39766U 14029A   25213.57395293  .00001065  00000+0  14943-3 0  9998
2 39766  97.9227 310.3266 0001514  98.8403 261.2979 14.79473344604353
YAOGAN-29               
1 41038U 15069A   25213.47478868  .00000464  00000+0  64210-4 0  9992
2 41038  98.0337 236.1056 0001741  37.4865 322.6469 14.82683046523247
ASTRO-H (HITOMI)        
1 41337U 16012A   25212.78712285  .00003204  00000+0  19579-3 0  9992
2 41337  31.0013 340.1256 0009974 274.4838  85.4661 15.08257338518831
HXMT (HUIYAN)           
1 42758U 17034A   25213.29725914  .00005135  00000+0  28430-3 0  9996
2 42758  43.0135 158.9023 0035659 283.6935  75.9943 15.14218056449115
CZ-2C R/B               
1 43521U 18054D   25213.51391680  .00036014  00000+0  50638-3 0  9997
2 43521  35.1393 348.8070 0031721 320.1976  39.6426 15.55029076394201
SAOCOM 1A               
1 43641U 18076A   25213.40602323  .00000421  00000+0  59402-4 0  9993
2 43641  97.8897  39.7329 0001397  90.8587 269.2786 14.82158575368731
H-2A R/B                
1 43682U 18084L   25213.38338551  .00014201  00000+0  45925-3 0  9998
2 43682  98.8810  20.5350 0031963  63.3874 297.0631 15.31724277371959
SAOCOM 1B               
1 46265U 20059A   25213.50480502  .00000479  00000+0  66697-4 0  9993
2 46265  97.8901  38.9347 0001399  90.6707 269.4667 14.82148640266141
CSS (TIANHE)            
1 48274U 21035A   25213.19290587  .00024178  00000+0  32471-3 0  9991
2 48274  41.4645 107.9059 0005326  34.2085 325.9095 15.57339340243170
COSMOS 2550             
1 48865U 21056A   25213.50698626  .00002774  00000+0  90101-4 0  9994
2 48865  67.1439 347.0080 0008373 269.4074  90.6121 15.33828741229709
CZ-2C R/B               
1 52794U 22058K   25212.60752503  .00014930  00000+0  34335-3 0  9991
2 52794  50.1949   3.2835 0055133 358.6350   1.4456 15.41250674175902
GSLV R/B                
1 54149U 22138AN  25212.56526355  .00002599  00000+0  23438-3 0  9995
2 54149  87.3761 240.3951 0020194 229.9922 129.9537 14.95007494150872
XRISM                   
1 57800U 23137A   25213.18020254  .00003989  00000+0  24401-3 0  9993
2 57800  31.0017 266.5057 0007904 344.6275  15.4122 15.08461187104513
ACS3                    
1 59588U 24077B   25212.95474764  .00011483  00000+0  10963-1 0  9999
2 59588  97.4327 197.7237 0074289  41.4906 319.1859 13.79373840 63661
